CCSDS_OMM_VERS = 2.0
CREATION_DATE  = 
ORIGINATOR     = 

OBJECT_NAME    = IDEFIX & ARIANE 42P R/B
OBJECT_ID      = 2002-021B
CENTER_NAME    = EARTH
REF_FRAME      = TEME
TIME_SYSTEM    = UTC
MEAN_ELEMENT_THEORY = SGP/SGP4

EPOCH          = 2026-03-02T13:46:13.964736
MEAN_MOTION    = 14.31020085
ECCENTRICITY   = .00111684
INCLINATION    = 98.5863
RA_OF_ASC_NODE = 0.2654
ARG_OF_PERICENTER = 203.7621
MEAN_ANOMALY   = 156.3048

EPHEMERIS_TYPE = 0
CLASSIFICATION_TYPE = U
NORAD_CAT_ID   = 27422
ELEMENT_SET_NO = 999
REV_AT_EPOCH   = 24300
BSTAR          = .14537092E-3
MEAN_MOTION_DOT = .339E-5
MEAN_MOTION_DDOT = 0

CCSDS_OMM_VERS = 2.0
CREATION_DATE  = 
ORIGINATOR     = 

OBJECT_NAME    = AQUA
OBJECT_ID      = 2002-022A
CENTER_NAME    = EARTH
REF_FRAME      = TEME
TIME_SYSTEM    = UTC
MEAN_ELEMENT_THEORY = SGP/SGP4

EPOCH          = 2026-03-02T15:12:38.694816
MEAN_MOTION    = 14.61956103
ECCENTRICITY   = .00006997
INCLINATION    = 98.4162
RA_OF_ASC_NODE = 28.8709
ARG_OF_PERICENTER = 56.7680
MEAN_ANOMALY   = 357.4597

EPHEMERIS_TYPE = 0
CLASSIFICATION_TYPE = U
NORAD_CAT_ID   = 27424
ELEMENT_SET_NO = 999
REV_AT_EPOCH   = 26770
BSTAR          = .26302924E-3
MEAN_MOTION_DOT = .1268E-4
MEAN_MOTION_DDOT = 0

CCSDS_OMM_VERS = 2.0
CREATION_DATE  = 
ORIGINATOR     = 

OBJECT_NAME    = CZ-4B R/B
OBJECT_ID      = 2002-024C
CENTER_NAME    = EARTH
REF_FRAME      = TEME
TIME_SYSTEM    = UTC
MEAN_ELEMENT_THEORY = SGP/SGP4

EPOCH          = 2026-03-02T15:44:25.541088
MEAN_MOTION    = 14.14546127
ECCENTRICITY   = .00507977
INCLINATION    = 98.8855
RA_OF_ASC_NODE = 115.0975
ARG_OF_PERICENTER = 43.9900
MEAN_ANOMALY   = 69.1122

EPHEMERIS_TYPE = 0
CLASSIFICATION_TYPE = U
NORAD_CAT_ID   = 27432
ELEMENT_SET_NO = 999
REV_AT_EPOCH   = 22824
BSTAR          = .50808345E-4
MEAN_MOTION_DOT = .54E-6
MEAN_MOTION_DDOT = 0

CCSDS_OMM_VERS = 2.0
CREATION_DATE  = 
ORIGINATOR     = 

OBJECT_NAME    = MIDORI II (ADEOS-II)
OBJECT_ID      = 2002-056A
CENTER_NAME    = EARTH
REF_FRAME      = TEME
TIME_SYSTEM    = UTC
MEAN_ELEMENT_THEORY = SGP/SGP4

EPOCH          = 2026-03-02T14:14:12.610464
MEAN_MOTION    = 14.29278424
ECCENTRICITY   = .00018429
INCLINATION    = 98.7757
RA_OF_ASC_NODE = 20.0224
ARG_OF_PERICENTER = 53.2458
MEAN_ANOMALY   = 306.8892

EPHEMERIS_TYPE = 0
CLASSIFICATION_TYPE = U
NORAD_CAT_ID   = 27597
ELEMENT_SET_NO = 999
REV_AT_EPOCH   = 20928
BSTAR          = .15419311E-3
MEAN_MOTION_DOT = .347E-5
MEAN_MOTION_DDOT = 0

CCSDS_OMM_VERS = 2.0
CREATION_DATE  = 
ORIGINATOR     = 

OBJECT_NAME    = H-2A R/B
OBJECT_ID      = 2002-056E
CENTER_NAME    = EARTH
REF_FRAME      = TEME
TIME_SYSTEM    = UTC
MEAN_ELEMENT_THEORY = SGP/SGP4

EPOCH          = 2026-03-02T12:42:49.798656
MEAN_MOTION    = 14.33755095
ECCENTRICITY   = .00700515
INCLINATION    = 98.3189
RA_OF_ASC_NODE = 22.1684
ARG_OF_PERICENTER = 181.9546
MEAN_ANOMALY   = 293.2276

EPHEMERIS_TYPE = 0
CLASSIFICATION_TYPE = U
NORAD_CAT_ID   = 27601
ELEMENT_SET_NO = 999
REV_AT_EPOCH   = 21308
BSTAR          = .12731879E-3
MEAN_MOTION_DOT = .322E-5
MEAN_MOTION_DDOT = 0

CCSDS_OMM_VERS = 2.0
CREATION_DATE  = 
ORIGINATOR     = 

OBJECT_NAME    = CZ-4B R/B
OBJECT_ID      = 2003-049C
CENTER_NAME    = EARTH
REF_FRAME      = TEME
TIME_SYSTEM    = UTC
MEAN_ELEMENT_THEORY = SGP/SGP4

EPOCH          = 2026-03-02T13:48:42.257376
MEAN_MOTION    = 14.55011904
ECCENTRICITY   = .004703
INCLINATION    = 98.6871
RA_OF_ASC_NODE = 56.2015
ARG_OF_PERICENTER = 253.0831
MEAN_ANOMALY   = 106.5205

EPHEMERIS_TYPE = 0
CLASSIFICATION_TYPE = U
NORAD_CAT_ID   = 28059
ELEMENT_SET_NO = 999
REV_AT_EPOCH   = 18556
BSTAR          = .12953319E-3
MEAN_MOTION_DOT = .514E-5
MEAN_MOTION_DDOT = 0

CCSDS_OMM_VERS = 2.0
CREATION_DATE  = 
ORIGINATOR     = 

OBJECT_NAME    = CZ-2C R/B
OBJECT_ID      = 2004-012C
CENTER_NAME    = EARTH
REF_FRAME      = TEME
TIME_SYSTEM    = UTC
MEAN_ELEMENT_THEORY = SGP/SGP4

EPOCH          = 2026-03-02T15:14:52.295136
MEAN_MOTION    = 15.63554193
ECCENTRICITY   = .00133556
INCLINATION    = 97.7246
RA_OF_ASC_NODE = 126.2641
ARG_OF_PERICENTER = 338.4815
MEAN_ANOMALY   = 21.5880

EPHEMERIS_TYPE = 0
CLASSIFICATION_TYPE = U
NORAD_CAT_ID   = 28222
ELEMENT_SET_NO = 999
REV_AT_EPOCH   = 20317
BSTAR          = .61936063E-3
MEAN_MOTION_DOT = .57807E-3
MEAN_MOTION_DDOT = 0

CCSDS_OMM_VERS = 2.0
CREATION_DATE  = 
ORIGINATOR     = 

OBJECT_NAME    = SL-16 R/B
OBJECT_ID      = 2004-021B
CENTER_NAME    = EARTH
REF_FRAME      = TEME
TIME_SYSTEM    = UTC
MEAN_ELEMENT_THEORY = SGP/SGP4

EPOCH          = 2026-03-02T14:20:58.649856
MEAN_MOTION    = 14.14599741
ECCENTRICITY   = .00036768
INCLINATION    = 70.9991
RA_OF_ASC_NODE = 247.3760
ARG_OF_PERICENTER = 24.1979
MEAN_ANOMALY   = 335.9315

EPHEMERIS_TYPE = 0
CLASSIFICATION_TYPE = U
NORAD_CAT_ID   = 28353
ELEMENT_SET_NO = 999
REV_AT_EPOCH   = 12183
BSTAR          = -.2478677E-4
MEAN_MOTION_DOT = -.95E-6
MEAN_MOTION_DDOT = 0

CCSDS_OMM_VERS = 2.0
CREATION_DATE  = 
ORIGINATOR     = 

OBJECT_NAME    = CZ-4B R/B
OBJECT_ID      = 2004-035C
CENTER_NAME    = EARTH
REF_FRAME      = TEME
TIME_SYSTEM    = UTC
MEAN_ELEMENT_THEORY = SGP/SGP4

EPOCH          = 2026-03-02T13:54:22.738176
MEAN_MOTION    = 15.28909409
ECCENTRICITY   = .0031878
INCLINATION    = 97.3511
RA_OF_ASC_NODE = 95.9076
ARG_OF_PERICENTER = 357.3081
MEAN_ANOMALY   = 2.7982

EPHEMERIS_TYPE = 0
CLASSIFICATION_TYPE = U
NORAD_CAT_ID   = 28415
ELEMENT_SET_NO = 999
REV_AT_EPOCH   = 17882
BSTAR          = .35292754E-3
MEAN_MOTION_DOT = .999E-4
MEAN_MOTION_DDOT = 0

CCSDS_OMM_VERS = 2.0
CREATION_DATE  = 
ORIGINATOR     = 

OBJECT_NAME    = CZ-2C R/B
OBJECT_ID      = 2004-046B
CENTER_NAME    = EARTH
REF_FRAME      = TEME
TIME_SYSTEM    = UTC
MEAN_ELEMENT_THEORY = SGP/SGP4

EPOCH          = 2026-03-02T14:44:01.837824
MEAN_MOTION    = 14.26989444
ECCENTRICITY   = .01394614
INCLINATION    = 98.1989
RA_OF_ASC_NODE = 337.0380
ARG_OF_PERICENTER = 175.3145
MEAN_ANOMALY   = 184.9379

EPHEMERIS_TYPE = 0
CLASSIFICATION_TYPE = U
NORAD_CAT_ID   = 28480
ELEMENT_SET_NO = 999
REV_AT_EPOCH   = 10749
BSTAR          = .72139853E-4
MEAN_MOTION_DOT = .154E-5
MEAN_MOTION_DDOT = 0

CCSDS_OMM_VERS = 2.0
CREATION_DATE  = 
ORIGINATOR     = 

OBJECT_NAME    = ARIANE 5 R/B
OBJECT_ID      = 2004-049H
CENTER_NAME    = EARTH
REF_FRAME      = TEME
TIME_SYSTEM    = UTC
MEAN_ELEMENT_THEORY = SGP/SGP4

EPOCH          = 2026-03-02T10:10:53.681088
MEAN_MOTION    = 14.85249915
ECCENTRICITY   = .00844684
INCLINATION    = 98.2615
RA_OF_ASC_NODE = 229.6099
ARG_OF_PERICENTER = 15.4673
MEAN_ANOMALY   = 344.9092

EPHEMERIS_TYPE = 0
CLASSIFICATION_TYPE = U
NORAD_CAT_ID   = 28499
ELEMENT_SET_NO = 999
REV_AT_EPOCH   = 14471
BSTAR          = .11590943E-3
MEAN_MOTION_DOT = .995E-5
MEAN_MOTION_DDOT = 0

CCSDS_OMM_VERS = 2.0
CREATION_DATE  = 
ORIGINATOR     = 

OBJECT_NAME    = CZ-2D R/B
OBJECT_ID      = 2005-024B
CENTER_NAME    = EARTH
REF_FRAME      = TEME
TIME_SYSTEM    = UTC
MEAN_ELEMENT_THEORY = SGP/SGP4

EPOCH          = 2026-03-02T14:07:05.177568
MEAN_MOTION    = 15.59401584
ECCENTRICITY   = .00068468
INCLINATION    = 97.3599
RA_OF_ASC_NODE = 76.4775
ARG_OF_PERICENTER = 64.2813
MEAN_ANOMALY   = 295.9150

EPHEMERIS_TYPE = 0
CLASSIFICATION_TYPE = U
NORAD_CAT_ID   = 28738
ELEMENT_SET_NO = 999
REV_AT_EPOCH   = 13867
BSTAR          = .58063794E-3
MEAN_MOTION_DOT = .45969E-3
MEAN_MOTION_DDOT = 0

