IDEFIX & ARIANE 42P R/B 
1 27422U 02021B   26061.57377274  .00000339  00000+0  14537-3 0  9996
2 27422  98.5863   0.2654 0011168 203.7621 156.3048 14.31020085243003
AQUA                    
1 27424U 02022A   26061.63378119  .00001268  00000+0  26303-3 0  9991
2 27424  98.4162  28.8709 0000699  56.7680 357.4597 14.61956103267709
CZ-4B R/B               
1 27432U 02024C   26061.65585117  .00000054  00000+0  50808-4 0  9992
2 27432  98.8855 115.0975 0050797  43.9900  69.1122 14.14546127228248
MIDORI II (ADEOS-II)    
1 27597U 02056A   26061.59320151  .00000347  00000+0  15419-3 0  9990
2 27597  98.7757  20.0224 0001842  53.2458 306.8892 14.29278424209287
H-2A R/B                
1 27601U 02056E   26061.52974304  .00000322  00000+0  12732-3 0  9992
2 27601  98.3189  22.1684 0070051 181.9546 293.2276 14.33755095213083
CZ-4B R/B               
1 28059U 03049C   26061.57548909  .00000514  00000+0  12953-3 0  9994
2 28059  98.6871  56.2015 0047030 253.0831 106.5205 14.55011904185564
CZ-2C R/B               
1 28222U 04012C   26061.63532749  .00057807  00000+0  61936-3 0  9991
2 28222  97.7246 126.2641 0013355 338.4815  21.5880 15.63554193203173
SL-16 R/B               
1 28353U 04021B   26061.59790104 -.00000095  00000+0 -24787-4 0  9995
2 28353  70.9991 247.3760 0003676  24.1979 335.9315 14.14599741121830
CZ-4B R/B               
1 28415U 04035C   26061.57942984  .00009990  00000+0  35293-3 0  9996
2 28415  97.3511  95.9076 0031878 357.3081   2.7982 15.28909409178829
CZ-2C R/B               
1 28480U 04046B   26061.61391016  .00000154  00000+0  72140-4 0  9995
2 28480  98.1989 337.0380 0139461 175.3145 184.9379 14.26989444107495
ARIANE 5 R/B            
1 28499U 04049H   26061.42423242  .00000995  00000+0  11591-3 0  9999
2 28499  98.2615 229.6099 0084468  15.4673 344.9092 14.85249915144714
CZ-2D R/B               
1 28738U 05024B   26061.58825437  .00045969  00000+0  58064-3 0  9994
2 28738  97.3599  76.4775 0006846  64.2813 295.9150 15.59401584138674
